JCAT , SatcatLaunch_Tag Piece     , Type     , Name                        , PLName                      , LDate      , Parent      , SDate              , Primary, DDate              , Status Dest   , Owner       , State , Manufacturer, Bus              , Motor       , Mass     , DryMass   , TotMass  , Length, Diamete, Span   , Shape                    , ODate      , Perigee, Apogee, Inc   , OpOrbitOQU AltNames, STATUS, OBJECT_NAME             , OBJECT_ID , EPOCH                     , MEAN_MOTION, ECCENTRICITY, INCLINATION, RA_OF_ASC_NODE, ARG_OF_PERICENTER, MEAN_ANOMALY, EPHEMERIS_TYPE, CLASSIFICATION_TYPE, NORAD_CAT_ID, ELEMENT_SET_NO, REV_AT_EPOCH, BSTAR         , MEAN_MOTION_DOT, MEAN_MOTION_DDOT, LAST_UPDATED       , DATA_SOURCE               , TLE_LINE1                                                            , TLE_LINE2                                                            , N2YO_SAT_NAME              , TLE_FETCHED
38254, 38254 2012-019   2012-019A , P ------c, AEHF SV-2                   , AEHF SV-2                   , 2012 May  4, S38255      , 2012 May  4 1933   , Earth  , -                  , O      -      , AFMCSW      , US    , LMSS        , A2100M           , BT-4/AJ-EP? , 6200     , 4000    ? , 6200     , 9.8   , 2.0  ? , 27.0   , Box + 2 pan              , 2013 Jan  1, 35780? , 35800?, 0.00? , GEO/S  -   USA 235 , ACTIVE, AEHF-2 (USA 235)        , 2012-019A , 2025-10-03T05:00:21.860640,  1.00272264, 0.00031972  ,      6.0531,        59.262 ,          143.6456,     227.9121,            0.0, U                  ,      38254.0,          999.0,        441.0, 0.0           , -1.29e-06      , 0.0             , 2025-10-04 23:19:22, planet4589.org + Celestrak, 1 38254U 12019A   25276.20858635 -.00000129  00000-0  00000-0 0  9997, 2 38254   6.0531  59.2620 0003197 143.6456 227.9121  1.00272264  4419, AEHF 2 (USA 235)           , YES
38256, 38256 2012-020   2012-020A , P        , Tianhui 1-02                , Tianhui 1 hao 02 xing       , 2012 May  6, A07924      , 2012 May  6 0721   , Earth  , -                  , O      -      , GCDX        , CN    , DFHZ        , CAST-2000?       , -           , 1000    ?, 1000    ? , 1000    ?, 1.0  ?, 1.0  ? , 3.0  ? , Box + 2 Pan              , 2012 May  6, 490    , 506   , 97.37 , LLEO/S -           , ACTIVE, TIANHUI 1-02            , 2012-020A , 2025-10-03T14:50:29.644224, 15.73279   , 0.00046302  ,     97.6166,       106.6606,          279.189 ,      80.8849,            0.0, U                  ,      38256.0,          999.0,      74782.0, 0.00063000873 , 0.0008739      , 0.0             , 2025-10-04 23:19:22, planet4589.org + Celestrak, 1 38256U 12020A   25277.50881229  .00079465  00000-0  57000-3 0  9993, 2 38256  97.6165 107.6342 0004643 275.0866  84.9867 15.73422799747968, TIANHUI 1-02               , YES
38257, 38257 2012-021   2012-021A , P        , Yaogan Weixing 14           , Jianbing-11 01 xing         , 2012 May 10, S38259      , 2012 May 10 0719   , Earth  , -                  , O      -      , ZZB         , CN    , CAST        , JB-11            , -           , 3000    ?, 3000    ? , 3000    ?, 2.0  ?, 2.0  ? , 8.0  ? , Box + 2 Pan              , 2012 May 12, 469    , 473   , 97.24 , LLEO/S -           , ACTIVE, YAOGAN-14               , 2012-021A , 2025-10-03T14:23:38.355936, 15.23672681, 0.00064491  ,     97.2695,        55.4807,           43.8748,     316.3   ,            0.0, U                  ,      38257.0,          999.0,      74669.0, 0.00049303465 , 0.00011773     , 0.0             , 2025-10-04 23:19:22, planet4589.org + Celestrak, 1 38257U 12021A   25277.51916664  .00009908  00000-0  41528-3 0  9991, 2 38257  97.2698  56.3716 0006409  41.3874 318.7848 15.23691634746839, YAOGAN 14                  , YES
38331, 38331 2012-023   2012-023A , P        , JCSAT 4B                    , JCSAT 13                    , 2012 May 15, S38334      , 2012 May 15 2239   , Earth  , -                  , O      -      , SKPJ        , J     , LMCSS       , A2100AXS         , BT-4?       , 4528     , 2000    ? , 4528     , 6.0   , 2.6    , 27.0   , Box + 2 pan              , 2012 May 30, 35763  , 35802 , 0.05  , GEO/S  -           , ACTIVE, JCSAT-13                , 2012-023A , 2025-10-03T12:31:38.469792,  1.00269743, 0.00028479  ,      0.029 ,        98.2529,          100.8863,     125.2608,            0.0, U                  ,      38331.0,          999.0,       4896.0, 0.0           , -3.56e-06      , 0.0             , 2025-10-04 23:19:22, planet4589.org + Celestrak, 1 38331U 12023A   25276.52197303 -.00000356  00000-0  00000-0 0  9993, 2 38331   0.0290  98.2529 0002848 100.8863 125.2608  1.00269743 48967, JCSAT 13                   , YES
38332, 38332 2012-023   2012-023B , P        , Vinasat-2                   , Vinasat-2                   , 2012 May 15, S38333      , 2012 May 15 2248   , Earth  , -                  , O      -      , VNPT        , VN    , LMCSS       , A2100A           , BT-4        , 2964     , 1500    ? , 2964     , 4.4   , 1.9    , 18.9   , Box + 2 pan              , 2012 May 23, 35716  , 35761 , 0.08  , GEO/D  -           , ACTIVE, VINASAT-2               , 2012-023B , 2025-10-03T14:16:34.800672,  1.00269823, 0.00020863  ,      0.0073,       253.029 ,          295.5085,     170.0106,            0.0, U                  ,      38332.0,          999.0,       4408.0, 0.0           , -3.28e-06      , 0.0             , 2025-10-04 23:19:22, planet4589.org + Celestrak, 1 38332U 12023B   25276.59484723 -.00000328  00000-0  00000-0 0  9995, 2 38332   0.0073 253.0290 0002086 295.5085 170.0106  1.00269823 44084, VINASAT 2                  , YES
38337, 38337 2012-025   2012-025A , P        , Shizuku                     , GCOM-W1                     , 2012 May 17, S38341      , 2012 May 17 1702   , Earth  , -                  , O      -      , JAXA        , J     , NECTF?      , GCOM             , AOCS        , 1991     , 1841      , 1991     , 5.1   , 3.4    , 17.5   , Box +2 pan + dish        , 2012 May 17, 663    , 735   , 98.17 , LEO/S  -           , ACTIVE, GCOM-W1 (SHIZUKU)       , 2012-025A , 2025-10-03T13:45:11.547648, 14.57117464, 0.00016341  ,     98.2087,       215.7375,           84.8736,      88.288 ,            0.0, U                  ,      38337.0,          999.0,      71166.0, 0.00041490278 , 1.825e-05      , 0.0             , 2025-10-04 23:19:22, planet4589.org + Celestrak, 1 38337U 12025A   25277.45427689  .00001503  00000-0  34353-3 0  9992, 2 38337  98.2089 216.6061 0001621  84.4089  28.6050 14.57119819711799, GCOM W1                    , YES
38338, 38338 2012-025   2012-025B , P        , Arirang-3                   , KOMPSAT-3                   , 2012 May 17, S38345      , 2012 May 17 1655   , Earth  , -                  , O      -      , KARI        , KR    , KARI        , Kompsat          , -           , 800      , 700    ?  , 800    ? , 3.5   , 2.0    , 6.9  ? , Hex + 3 pan              , 2012 May 25, 665    , 678   , 98.18 , LEO/S  -           , ACTIVE, ARIRANG-3 (KOMPSAT-3)   , 2012-025B , 2025-10-03T15:26:31.334208, 14.61573091, 0.00057892  ,     98.3188,       230.7577,          171.612 ,     188.5179,            0.0, U                  ,      38338.0,          999.0,      71386.0, 0.00032803313 , 1.581e-05      , 0.0             , 2025-10-04 23:19:22, planet4589.org + Celestrak, 1 38338U 12025B   25277.53339787  .00001329  00000-0  27718-3 0  9996, 2 38338  98.3190 231.6529 0005856 168.9012 191.2319 14.61574649713998, KOMPSAT 3                  , YES
38339, 38339 2012-025   2012-025C , P        , SDS-4                       , SPAISE/SDS-4                , 2012 May 17, S38341      , 2012 May 17 1712   , Earth  , 2019 Apr 24        , N      -      , JAXA        , J     , JAXA        , SDS-1            , -           , 50       , 50        , 50       , 0.5   , 0.5    , 1.5    , Box + 2 pan              , 2012 May 24, 662    , 673   , 98.17 , LEO/S  -           , ACTIVE, SDS-4                   , 2012-025C , 2025-10-03T13:49:04.398240, 14.75116196, 0.00077239  ,     98.1441,         5.9231,           47.223 ,     312.9627,            0.0, U                  ,      38339.0,          999.0,      71814.0, 0.00043210879 , 2.864e-05      , 0.0             , 2025-10-04 23:19:22, planet4589.org + Celestrak, 1 38339U 12025C   25277.52539306  .00002329  00000-0  35278-3 0  9996, 2 38339  98.1443   6.8786 0007678  44.5505 315.6320 14.75120112718283, SDS-4                      , YES
38342, 38342 2012-026   2012-026A , P        , Nimiq 6                     , Nimiq 6                     , 2012 May 17, S38343      , 2012 May 18 0426   , Earth  , -                  , O      -      , TCANL       , CA    , LOR         , SSL-1300         , R-4D        , 4745     , 2000    ? , 4745     , 5.6  ?, 2.6  ? , 26.0   , Box + 2 pan              , 2012 May 25, 35738  , 35748 , 0.03  , GEO/D  -           , ACTIVE, NIMIQ 6                 , 2012-026A , 2025-10-03T13:12:57.010176,  1.00270428, 0.00028574  ,      0.0422,        74.1425,          117.7966,     287.706 ,            0.0, U                  ,      38342.0,          999.0,       4784.0, 0.0           , -1.73e-06      , 0.0             , 2025-10-04 23:19:22, planet4589.org + Celestrak, 1 38342U 12026A   25277.47834052 -.00000173  00000-0  00000+0 0  9998, 2 38342   0.0451  72.5720 0002876 117.9178 264.0358  1.00273627 47841, NIMIQ 6                    , YES
